ONEWEB-0492             
1 54114U 22138B   25041.48795929  .00000094  00000+0  20236-3 0  9994
2 54114  87.9156  42.7099 0002122  89.7816 270.3560 13.19725119111982
ONEWEB-0495             
1 54115U 22138C   25041.54167459  .00000074  00000+0  15355-3 0  9997
2 54115  87.9153  42.7108 0002290 106.7905 253.3479 13.19725851111978
ONEWEB-0499             
1 54117U 22138E   25041.53692026  .00000063  00000+0  12441-3 0  9992
2 54117  87.9155  42.7013 0001558  99.1780 260.9528 13.19725660111976
ONEWEB-0500             
1 54118U 22138F   25041.54007392  .00000115  00000+0  25507-3 0  9995
2 54118  87.9149  42.6895 0001909  88.2274 271.9077 13.19725502111981
ONEWEB-0501             
1 54119U 22138G   25041.49427702  .00000080  00000+0  16764-3 0  9997
2 54119  87.9150  42.6936 0002037 102.7928 257.3432 13.19724818111950
ONEWEB-0503             
1 54121U 22138J   25041.46900535  .00000065  00000+0  12976-3 0  9991
2 54121  87.9147  42.6903 0001506  89.4859 270.6446 13.19725314111963
